0 BLOCK DM-SL R/B
1 28645U 05015B   13280.20381133  .00004936  00000-0  89865-3 0  2737
2 28645 000.2587 053.5740 6948019 201.9392 023.8552 02.71817868 78767
0 BLOCK DM-SL R/B
1 28645U 05015B   13282.77821616  .00006244  00000-0  10081-2 0  2744
2 28645 000.2636 053.3976 6949735 203.4362 023.1627 02.71850275 78834
0 BLOCK DM-SL R/B
1 28645U 05015B   13283.88140739  .00008548  00000-0  13475-2 0  2757
2 28645 000.2713 053.2418 6949886 204.1557 022.8477 02.71869228 78861
0 BLOCK DM-SL R/B
1 28645U 05015B   13284.98454489  .00010330  00000-0  16042-2 0  2765
2 28645 000.2729 052.9579 6949935 205.0059 022.5640 02.71892624 78892
0 BLOCK DM-SL R/B
1 28645U 05015B   13286.08758284  .00006775  00000-0  10267-2 0  2770
2 28645 000.2800 052.8955 6950263 205.6400 022.1967 02.71897395 78923
0 BLOCK DM-SL R/B
1 28645U 05015B   13287.92602773  .00006710  00000-0  10267-2 0  2785
2 28645 000.2852 051.9477 6950067 207.5375 021.7963 02.71921943 78976
0 BLOCK DM-SL R/B
1 28645U 05015B   13288.66133052  .00004530  00000-0  74422-3 0  2799
2 28645 000.2820 051.5048 6948725 208.3564 021.6012 02.71923453 78992
0 BLOCK DM-SL R/B
1 28645U 05015B   13290.13193605  .00009316  00000-0  15074-2 0  2800
2 28645 000.2812 051.1300 6948991 209.4876 021.3510 02.71961769 79031
0 BLOCK DM-SL R/B
1 28645U 05015B   13291.23459650  .00005647  00000-0  83962-3 0  2813
2 28645 000.2945 052.4428 6951172 208.7364 020.8841 02.71960853 79069
0 BLOCK DM-SL R/B
1 28645U 05015B   13291.96986018  .00006250  00000-0  93399-3 0  2823
2 28645 000.2952 052.3483 6951041 209.2134 020.7666 02.71972237 79088
0 BLOCK DM-SL R/B
1 28645U 05015B   13292.70502698  .00006757  00000-0  11248-2 0  2839
2 28645 000.2956 052.1022 6948719 209.8443 020.6216 02.71987550 79103
0 BLOCK DM-SL R/B
1 28645U 05015B   13294.17524974  .00007007  00000-0  11703-2 0  2849
2 28645 000.2994 051.4713 6948482 211.2335 020.2531 02.72009395 79141
